start=new Date('2022-08-16T00:00:00.000Z').valueOf();
sats=[{"CLASSIFICATION_TYPE":"U","OBJECT_ID":"2021-027AW","GP_ID":"210297452","MEAN_ELEMENT_THEORY":"SGP4","SEMIMAJOR_AXIS":"6925.365","OBJECT_TYPE":"PAYLOAD","BSTAR":"0.00003419500000","ELEMENT_SET_NO":"999","TIME_SYSTEM":"UTC","RA_OF_ASC_NODE":"256.0026","ARG_OF_PERICENTER":"66.4048","PERIOD":"95.592","EPHEMERIS_TYPE":"0","REV_AT_EPOCH":"7619","TLE_LINE1":"1 48136U 21027AW  22227.80399002  .00000228  00000-0  34195-4 0  9998","MEAN_MOTION_DDOT":"0.0000000000000","DECAY_DATE":null,"SITE":"AFETR","CENTER_NAME":"EARTH","LAUNCH_DATE":"2021-04-07","MEAN_ANOMALY":"293.7088","COUNTRY_CODE":"US","MEAN_MOTION_DOT":"0.00000228","TLE_LINE2":"2 48136  53.0538 256.0026 0001405  66.4048 293.7088 15.06394790 76191","APOAPSIS":"548.203","PERIAPSIS":"546.257","ECCENTRICITY":"0.00014050","OBJECT_NAME":"STARLINK-2479","MEAN_MOTION":"15.06394790","EPOCH":"2022-08-15T19:17:44.737728","FILE":"3537378","REF_FRAME":"TEME","RCS_SIZE":"LARGE","NORAD_CAT_ID":"48136","INCLINATION":"53.0538"},{"OBJECT_NAME":"STARLINK-2480","ECCENTRICITY":"0.00015450","PERIAPSIS":"546.127","MEAN_MOTION":"15.06405528","EPOCH":"2022-08-15T18:18:02.842560","MEAN_MOTION_DOT":"0.00001480","COUNTRY_CODE":"US","APOAPSIS":"548.267","TLE_LINE2":"2 48137  53.0534 236.1774 0001545  70.7256 289.3900 15.06405528 76467","INCLINATION":"53.0534","NORAD_CAT_ID":"48137","RCS_SIZE":"LARGE","FILE":"3537378","REF_FRAME":"TEME","TIME_SYSTEM":"UTC","ELEMENT_SET_NO":"999","PERIOD":"95.592","ARG_OF_PERICENTER":"70.7256","RA_OF_ASC_NODE":"236.1774","GP_ID":"210297702","MEAN_ELEMENT_THEORY":"SGP4","OBJECT_ID":"2021-027AX","CLASSIFICATION_TYPE":"U","SEMIMAJOR_AXIS":"6925.332","OBJECT_TYPE":"PAYLOAD","BSTAR":"0.00011820000000","LAUNCH_DATE":"2021-04-07","CENTER_NAME":"EARTH","SITE":"AFETR","DECAY_DATE":null,"MEAN_MOTION_DDOT":"0.0000000000000","MEAN_ANOMALY":"289.3900","REV_AT_EPOCH":"7646","EPHEMERIS_TYPE":"0","TLE_LINE1":"1 48137U 21027AX  22227.76253290  .00001480  00000-0  11820-3 0  9992"},{"EPOCH":"2022-08-15T18:57:52.104960","MEAN_MOTION":"15.06396179","PERIAPSIS":"546.191","OBJECT_NAME":"STARLINK-2481","ECCENTRICITY":"0.00014930","APOAPSIS":"548.259","TLE_LINE2":"2 48138  53.0530 256.0884 0001493  66.4668 293.6478 15.06396179 76197","MEAN_MOTION_DOT":"-0.00000039","COUNTRY_CODE":"US","NORAD_CAT_ID":"48138","RCS_SIZE":"LARGE","INCLINATION":"53.0530","REF_FRAME":"TEME","FILE":"3537378","RA_OF_ASC_NODE":"256.0884","PERIOD":"95.592","ARG_OF_PERICENTER":"66.4668","ELEMENT_SET_NO":"999","TIME_SYSTEM":"UTC","OBJECT_TYPE":"PAYLOAD","SEMIMAJOR_AXIS":"6925.360","BSTAR":"0.00001627400000","CLASSIFICATION_TYPE":"U","GP_ID":"210298953","MEAN_ELEMENT_THEORY":"SGP4","OBJECT_ID":"2021-027AY","MEAN_ANOMALY":"293.6478","DECAY_DATE":null,"MEAN_MOTION_DDOT":"0.0000000000000","LAUNCH_DATE":"2021-04-07","CENTER_NAME":"EARTH","SITE":"AFETR","TLE_LINE1":"1 48138U 21027AY  22227.79018640 -.00000039  00000-0  16274-4 0  9993","EPHEMERIS_TYPE":"0","REV_AT_EPOCH":"7619"},{"BSTAR":"-0.00008481400000","OBJECT_TYPE":"PAYLOAD","SEMIMAJOR_AXIS":"6925.359","OBJECT_ID":"2021-027AZ","MEAN_ELEMENT_THEORY":"SGP4","GP_ID":"210298696","CLASSIFICATION_TYPE":"U","ARG_OF_PERICENTER":"75.0417","PERIOD":"95.592","RA_OF_ASC_NODE":"236.4234","TIME_SYSTEM":"UTC","ELEMENT_SET_NO":"999","TLE_LINE1":"1 48139U 21027AZ  22227.71462899 -.00001545  00000-0 -84814-4 0  9994","REV_AT_EPOCH":"7646","EPHEMERIS_TYPE":"0","MEAN_ANOMALY":"285.0753","SITE":"AFETR","CENTER_NAME":"EARTH","LAUNCH_DATE":"2021-04-07","MEAN_MOTION_DDOT":"0.0000000000000","DECAY_DATE":null,"TLE_LINE2":"2 48139  53.0539 236.4234 0001641  75.0417 285.0753 15.06396613 76465","APOAPSIS":"548.360","COUNTRY_CODE":"US","MEAN_MOTION_DOT":"-0.00001545","MEAN_MOTION":"15.06396613","EPOCH":"2022-08-15T17:09:03.944736","ECCENTRICITY":"0.00016410","OBJECT_NAME":"STARLINK-2482","PERIAPSIS":"546.087","REF_FRAME":"TEME","FILE":"3537378","INCLINATION":"53.0539","RCS_SIZE":"LARGE","NORAD_CAT_ID":"48139"},{"REV_AT_EPOCH":"7619","EPHEMERIS_TYPE":"0","TLE_LINE1":"1 48140U 21027BA  22227.81503662  .00004068  00000-0  29175-3 0  9990","SITE":"AFETR","CENTER_NAME":"EARTH","LAUNCH_DATE":"2021-04-07","MEAN_MOTION_DDOT":"0.0000000000000","DECAY_DATE":null,"MEAN_ANOMALY":"282.6541","OBJECT_ID":"2021-027BA","GP_ID":"210297952","MEAN_ELEMENT_THEORY":"SGP4","CLASSIFICATION_TYPE":"U","OBJECT_TYPE":"PAYLOAD","SEMIMAJOR_AXIS":"6925.325","BSTAR":"0.00029175000000","TIME_SYSTEM":"UTC","ELEMENT_SET_NO":"999","ARG_OF_PERICENTER":"77.4587","PERIOD":"95.592","RA_OF_ASC_NODE":"255.9709","FILE":"3537378","REF_FRAME":"TEME","INCLINATION":"53.0525","RCS_SIZE":"LARGE","NORAD_CAT_ID":"48140","COUNTRY_CODE":"US","MEAN_MOTION_DOT":"0.00004068","TLE_LINE2":"2 48140  53.0525 255.9709 0001240  77.4587 282.6541 15.06407631 76195","APOAPSIS":"548.049","ECCENTRICITY":"0.00012400","OBJECT_NAME":"STARLINK-2483","PERIAPSIS":"546.331","MEAN_MOTION":"15.06407631","EPOCH":"2022-08-15T19:33:39.163968"},{"TLE_LINE1":"1 48141U 21027BB  22227.77175898 -.00001064  00000-0 -52512-4 0  9999","REV_AT_EPOCH":"7620","EPHEMERIS_TYPE":"0","MEAN_ANOMALY":"299.8094","SITE":"AFETR","LAUNCH_DATE":"2021-04-07","CENTER_NAME":"EARTH","MEAN_MOTION_DDOT":"0.0000000000000","DECAY_DATE":null,"SEMIMAJOR_AXIS":"6925.372","OBJECT_TYPE":"PAYLOAD","BSTAR":"-0.00005251200000","OBJECT_ID":"2021-027BB","MEAN_ELEMENT_THEORY":"SGP4","GP_ID":"210298202","CLASSIFICATION_TYPE":"U","ARG_OF_PERICENTER":"60.3106","PERIOD":"95.593","RA_OF_ASC_NODE":"256.1456","TIME_SYSTEM":"UTC","ELEMENT_SET_NO":"999","REF_FRAME":"TEME","FILE":"3537378","INCLINATION":"53.0544","RCS_SIZE":"LARGE","NORAD_CAT_ID":"48141","TLE_LINE2":"2 48141  53.0544 256.1456 0002114  60.3106 299.8094 15.06392361 76206","APOAPSIS":"548.701","COUNTRY_CODE":"US","MEAN_MOTION_DOT":"-0.00001064","MEAN_MOTION":"15.06392361","EPOCH":"2022-08-15T18:31:19.975872","ECCENTRICITY":"0.00021140","OBJECT_NAME":"STARLINK-2484","PERIAPSIS":"545.773"},{"REF_FRAME":"TEME","FILE":"3537056","INCLINATION":"53.0531","RCS_SIZE":"LARGE","NORAD_CAT_ID":"48142","TLE_LINE2":"2 48142  53.0531 237.3342 0001290  77.7034 282.4099 15.06398575 76435","APOAPSIS":"548.111","COUNTRY_CODE":"US","MEAN_MOTION_DOT":"-0.00000209","EPOCH":"2022-08-15T12:17:08.166912","MEAN_MOTION":"15.06398575","ECCENTRICITY":"0.00012900","OBJECT_NAME":"STARLINK-2485","PERIAPSIS":"546.325","TLE_LINE1":"1 48142U 21027BC  22227.51190008 -.00000209  00000-0  48376-5 0  9995","REV_AT_EPOCH":"7643","EPHEMERIS_TYPE":"0","MEAN_ANOMALY":"282.4099","SITE":"AFETR","LAUNCH_DATE":"2021-04-07","CENTER_NAME":"EARTH","MEAN_MOTION_DDOT":"0.0000000000000","DECAY_DATE":null,"OBJECT_TYPE":"PAYLOAD","SEMIMAJOR_AXIS":"6925.353","BSTAR":"0.00000483760000","OBJECT_ID":"2021-027BC","GP_ID":"210266376","MEAN_ELEMENT_THEORY":"SGP4","CLASSIFICATION_TYPE":"U","ARG_OF_PERICENTER":"77.7034","PERIOD":"95.592","RA_OF_ASC_NODE":"237.3342","TIME_SYSTEM":"UTC","ELEMENT_SET_NO":"999"},{"TLE_LINE2":"2 48143  53.0537 193.3021 0001743  73.3429 286.7751 15.06395102 77021","APOAPSIS":"548.436","COUNTRY_CODE":"US","MEAN_MOTION_DOT":"-0.00000937","EPOCH":"2022-08-15T07:05:55.704768","MEAN_MOTION":"15.06395102","PERIAPSIS":"546.021","ECCENTRICITY":"0.00017430","OBJECT_NAME":"STARLINK-2486","REF_FRAME":"TEME","FILE":"3537056","RCS_SIZE":"LARGE","NORAD_CAT_ID":"48143","INCLINATION":"53.0537","OBJECT_TYPE":"PAYLOAD","SEMIMAJOR_AXIS":"6925.364","BSTAR":"-0.00004399800000","CLASSIFICATION_TYPE":"U","OBJECT_ID":"2021-027BD","GP_ID":"210266618","MEAN_ELEMENT_THEORY":"SGP4","RA_OF_ASC_NODE":"193.3021","ARG_OF_PERICENTER":"73.3429","PERIOD":"95.592","ELEMENT_SET_NO":"999","TIME_SYSTEM":"UTC","TLE_LINE1":"1 48143U 21027BD  22227.29578362 -.00000937  00000-0 -43998-4 0  9997","EPHEMERIS_TYPE":"0","REV_AT_EPOCH":"7702","MEAN_ANOMALY":"286.7751","MEAN_MOTION_DDOT":"0.0000000000000","DECAY_DATE":null,"SITE":"AFETR","LAUNCH_DATE":"2021-04-07","CENTER_NAME":"EARTH"},{"COUNTRY_CODE":"US","MEAN_MOTION_DOT":"0.00000014","TLE_LINE2":"2 48144  53.0542 236.4072 0001318  83.5268 276.5871 15.06400397 76454","APOAPSIS":"548.125","ECCENTRICITY":"0.00013180","OBJECT_NAME":"STARLINK-2487","PERIAPSIS":"546.300","MEAN_MOTION":"15.06400397","EPOCH":"2022-08-15T17:14:22.012512","FILE":"3537378","REF_FRAME":"TEME","INCLINATION":"53.0542","RCS_SIZE":"LARGE","NORAD_CAT_ID":"48144","OBJECT_ID":"2021-027BE","MEAN_ELEMENT_THEORY":"SGP4","GP_ID":"210297453","CLASSIFICATION_TYPE":"U","SEMIMAJOR_AXIS":"6925.347","OBJECT_TYPE":"PAYLOAD","BSTAR":"0.00001980200000","TIME_SYSTEM":"UTC","ELEMENT_SET_NO":"999","ARG_OF_PERICENTER":"83.5268","PERIOD":"95.592","RA_OF_ASC_NODE":"236.4072","REV_AT_EPOCH":"7645","EPHEMERIS_TYPE":"0","TLE_LINE1":"1 48144U 21027BE  22227.71831033  .00000014  00000-0  19802-4 0  9993","SITE":"AFETR","LAUNCH_DATE":"2021-04-07","CENTER_NAME":"EARTH","MEAN_MOTION_DDOT":"0.0000000000000","DECAY_DATE":null,"MEAN_ANOMALY":"276.5871"},{"APOAPSIS":"548.367","TLE_LINE2":"2 48145  53.0528 236.3904 0001689  64.1782 295.9381 15.06405367 76463","MEAN_MOTION_DOT":"0.00002432","COUNTRY_CODE":"US","MEAN_MOTION":"15.06405367","EPOCH":"2022-08-15T17:19:41.930112","PERIAPSIS":"546.027","OBJECT_NAME":"STARLINK-2488","ECCENTRICITY":"0.00016890","REF_FRAME":"TEME","FILE":"3537378","NORAD_CAT_ID":"48145","RCS_SIZE":"LARGE","INCLINATION":"53.0528","OBJECT_TYPE":"PAYLOAD","SEMIMAJOR_AXIS":"6925.332","BSTAR":"0.00018209000000","CLASSIFICATION_TYPE":"U","MEAN_ELEMENT_THEORY":"SGP4","GP_ID":"210297703","OBJECT_ID":"2021-027BF","RA_OF_ASC_NODE":"236.3904","PERIOD":"95.592","ARG_OF_PERICENTER":"64.1782","ELEMENT_SET_NO":"999","TIME_SYSTEM":"UTC","TLE_LINE1":"1 48145U 21027BF  22227.72201308  .00002432  00000-0  18209-3 0  9996","EPHEMERIS_TYPE":"0","REV_AT_EPOCH":"7646","MEAN_ANOMALY":"295.9381","DECAY_DATE":null,"MEAN_MOTION_DDOT":"0.0000000000000","CENTER_NAME":"EARTH","LAUNCH_DATE":"2021-04-07","SITE":"AFETR"}];
